LEMUR-2-FINNIAN         
1 66782U 25276DX  26189.02019376  .00002186  00000+0  17772-3 0  9998
2 66782  97.5341 259.3594 0007985  26.3338 333.8291 15.00562767 23127
LEMUR-2-STARLIGHT       
1 66783U 25276DY  26189.72886729  .00004473  00000+0  37014-3 0  9992
2 66783  97.5227 259.6310 0014753  66.1054 294.1714 14.99303210 33424
LEMUR-2-TARTIFLETTE     
1 66784U 25276DZ  26189.72720889  .00003667  00000+0  30443-3 0  9990
2 66784  97.5228 259.6372 0013783  73.9677 286.3064 14.99291776 33427
LEMUR-2-VUKASIN         
1 66785U 25276EA  26189.76947050  .00003433  00000+0  27694-3 0  9991
2 66785  97.5244 260.0251 0004051  73.4291 286.7378 15.00508276 33389
LEMUR-2-HOTSPUR-TOM     
1 66786U 25276EB  26189.72119961  .00003882  00000+0  32281-3 0  9996
2 66786  97.5218 259.6080 0013879  65.1391 295.1274 14.99199376 33352
LEMUR-2-MYRA            
1 66787U 25276EC  26189.73485132  .00004189  00000+0  33554-3 0  9999
2 66787  97.5215 259.9118 0018549  73.7991 286.5273 15.00540732 33447
LEMUR-2 FIKRETDENGIZ    
1 67363U 26004A   26189.78157677  .00002265  00000+0  24955-3 0  9993
2 67363  97.8024 188.0099 0010443  73.6588 286.5776 14.88486564 26497
TWILIGHT-1 OBJECT B     
1 67364U 26004B   26189.95015328  .00001330  00000+0  15152-3 0  9990
2 67364  97.8069 188.1805 0010061  63.6748 296.5501 14.87779263 26527
LEMUR-2-MARIO-SOUSA     
1 67365U 26004C   26189.42626559  .00002615  00000+0  28573-3 0  9995
2 67365  97.7999 187.6551 0010149  75.7007 284.5336 14.88692272 26450
LEMUR-2-SONNENBLUME     
1 67367U 26004E   26189.96571181  .00001589  00000+0  17708-3 0  9993
2 67367  97.7994 188.1619 0009657  75.6747 284.5541 14.88433763 26535
LEMUR-2-WOBLER          
1 67368U 26004F   26189.95600901  .00002446  00000+0  26776-3 0  9994
2 67368  97.8049 188.2967 0009867  67.3819 292.8441 14.88670933 26539
LEMUR-2-GRAM-E-SUE      
1 67370U 26004H   26189.94770513  .00001760  00000+0  19485-3 0  9990
2 67370  97.7979 188.1606 0008821  78.1086 282.1119 14.88571655 26532
LEMUR-2-KATIE           
1 67387U 26004AA  26189.30727682  .00002282  00000+0  24116-3 0  9994
2 67387  97.8044 188.0585 0004033  49.1270 311.0297 14.90210933 26455
LEMUR-2-HCS-BAZUS       
1 67388U 26004AB  26189.91001972  .00001261  00000+0  13573-3 0  9990
2 67388  97.8033 188.6331 0003429  48.3444 311.8067 14.90240247 26545
